ONEWEB-0125             
1 47271U 20100P   23059.54905596  .00000262  00000+0  69324-3 0  9992
2 47271  87.8939 229.9800 0001698 100.5151 259.6169 13.12441855106621
ONEWEB-0125             
1 47271U 20100P   23059.85400568  .00000242  00000+0  63653-3 0  9992
2 47271  87.8940 229.9194 0001705 100.6002 259.5318 13.12441774106663
ONEWEB-0125             
1 47271U 20100P   23060.15895400  .00000396  00000+0  10650-2 0  9998
2 47271  87.8940 229.8588 0001710 100.5171 259.6150 13.12442639106702
ONEWEB-0125             
1 47271U 20100P   23060.84509006  .00000424  00000+0  11424-2 0  9990
2 47271  87.8942 229.7226 0001701 100.4045 259.7275 13.12442139106794
ONEWEB-0125             
1 47271U 20100P   23061.75993586  .00000533  00000+0  14467-2 0  9992
2 47271  87.8943 229.5408 0001699 100.1168 260.0152 13.12443139106918
ONEWEB-0125             
1 47271U 20100P   23062.44606997  .00000509  00000+0  13796-2 0  9993
2 47271  87.8946 229.4046 0001658  99.9676 260.1639 13.12443551107002
ONEWEB-0125             
1 47271U 20100P   23062.75101790  .00000481  00000+0  13021-2 0  9998
2 47271  87.8947 229.3440 0001664 100.1967 259.9350 13.12444193107048
ONEWEB-0125             
1 47271U 20100P   23062.97972959  .00000352  00000+0  94354-3 0  9991
2 47271  87.8947 229.2986 0001655 100.3400 259.7915 13.12443952107076
